satname,norad_id,inclination_deg,eccentricity,mean_motion_rev_per_day,perigee_km,apogee_km,l1,l2
STARLINK-1202,45183,53.1628,0.0001108,15.30188637,474.48964233056176,476.00835266760714,1 45183U 20012F   26072.28082323  .00003255  00000+0  12203-3 0  9996,2 45183  53.1628  22.5721 0001108  89.8829 270.2299 15.30188637335500
STARLINK-1216,45185,53.1604,0.0001225,15.30205967,474.3577196447741,476.0367865367816,1 45185U 20012H   26072.27133549  .00003777  00000+0  13955-3 0  9998,2 45185  53.1604  22.5938 0001225  83.5711 276.5429 15.30205967335440
STARLINK-1225,45187,53.1616,0.0001202,15.30201982,474.38537932355484,476.03292373838394,1 45187U 20012K   26072.26824459  .00004878  00000+0  17670-3 0  9997,2 45187  53.1616  23.0472 0001202  82.2985 277.8152 15.30201982335482
STARLINK-1230,45189,53.1608,0.0001311,15.30201124,474.313239343659,476.11018737630184,1 45189U 20012M   26072.27773451  .00001720  00000+0  70177-4 0  9990,2 45189  53.1608  23.0639 0001311 106.7558 253.3587 15.30201124332711
STARLINK-1234,45190,53.0435,0.0003805,15.6341911,375.21857684740917,380.35983669075904,1 45190U 20012N   26072.66667824  .00117241  00000+0  12350-2 0  9994,2 45190  53.0435 305.8438 0003805 307.5625 335.2366 15.63419110  5965
STARLINK-1269,45197,53.162,0.0001193,15.30209433,474.36930278453474,476.0045058681071,1 45197U 20012V   26072.27455482  .00000419  00000+0  26275-4 0  9994,2 45197  53.1620  22.9386 0001193  98.9691 261.1445 15.30209433335465
STARLINK-1154,45198,53.0489,0.0007585,15.46823809,420.8634800240379,431.18539292316837,1 45198U 20012W   26072.66667824  .00134519  00000+0  25984-2 0  9996,2 45198  53.0489 351.0233 0007585 108.1931 106.4218 15.46823809  5927
STARLINK-1199,45201,53.1578,0.000108,15.30170409,474.56325266953263,476.0435958011667,1 45201U 20012Z   26072.33335648  .00039244  00000+0  13314-2 0  9994,2 45201  53.1578   6.9149 0001080  75.8667  57.5704 15.30170409  5766
STARLINK-1209,45206,53.0474,0.0006228,15.51685955,407.5745161181476,416.0320657445309,1 45206U 20012AE  26071.70282275  .00092321  00000+0  15143-2 0  9993,2 45206  53.0474 318.9557 0006228 285.5202  74.5119 15.51685955335381
STARLINK-1231,45212,53.0499,0.0004423,15.21526967,498.19137023377516,504.27686192305737,1 45212U 20012AL  26072.16190657  .00047964  00000+0  21033-2 0  9991,2 45212  53.0499 359.8420 0004423 103.2095 256.9394 15.21526967335755
STARLINK-1271,45217,53.1589,0.0001383,15.30202463,474.2598977810121,476.1555329292796,1 45217U 20012AR  26072.04581412  .00003337  00000+0  12472-3 0  9990,2 45217  53.1589   8.3733 0001383  91.6415 268.4744 15.30202463335672
STARLINK-1191,45222,53.1618,0.0001286,15.30298291,474.04030258224975,475.8029092556926,1 45222U 20012AW  26072.06578579  .00028743  00000+0  97586-3 0  9995,2 45222  53.1618 343.1444 0001286  95.0197 265.0951 15.30298291336035
STARLINK-1212,45223,53.05,0.0005962,15.52895875,404.22990692026906,412.32202574132225,1 45223U 20012AX  26072.39166415  .00117215  00000+0  18332-2 0  9998,2 45223  53.0500 332.2583 0005962 130.2446 229.9085 15.52895875336214
STARLINK-1215,45225,53.1607,0.0001354,15.3019616,474.29858956849785,476.15448041377385,1 45225U 20012AZ  26072.11738719  .00004918  00000+0  17808-3 0  9995,2 45225  53.1607 342.3824 0001354  84.9905 275.1250 15.30196160336002
STARLINK-1221,45227,53.0646,0.0003283,15.42070308,437.76162370037764,442.23841246645134,1 45227U 20012BB  26072.54114945  .00019264  00000+0  45231-3 0  9994,2 45227  53.0646 251.3619 0003283  54.3188 305.8122 15.42070308337305
STARLINK-1222,45228,53.0551,0.0003835,15.49726773,414.9185621226552,420.1308346453161,1 45228U 20012BC  26072.10361860  .00040810  00000+0  72704-3 0  9993,2 45228  53.0551 326.4429 0003835  94.7909 265.3537 15.49726773336159
STARLINK-1226,45229,53.162,0.0002095,15.30326375,473.40206420301365,476.2734606284648,1 45229U 20012BD  26072.14679686  .00012012  00000+0  41542-3 0  9995,2 45229  53.1620 342.5424 0002095 137.9990 222.1172 15.30326375335945
STARLINK-1227,45230,53.1594,0.0001113,15.31044243,471.9329727367822,473.45796804469046,1 45230U 20012BE  26072.16656369  .00002820  00000+0  10464-3 0  9997,2 45230  53.1594 342.6964 0001113  96.6969 263.4159 15.31044243336063
STARLINK-1246,45235,53.1604,0.0001401,15.30198781,474.25855400116416,476.1788642708643,1 45235U 20012BK  26072.28398392  .00002231  00000+0  87422-4 0  9999,2 45235  53.1604  22.5543 0001401  96.9616 263.1544 15.30198781335520
STARLINK-1270,45237,53.051,0.000384,15.47648476,420.99527970947565,426.2190192162625,1 45237U 20012BM  26072.13491295  .00090565  00000+0  17137-2 0  9992,2 45237  53.0510 331.0933 0003840 114.2420 245.8989 15.47648476336209
STARLINK-1279,45360,53.0434,0.0001327,15.5773001,393.3297265492938,395.1271123316137,1 45360U 20019A   26072.29085042  .00062987  00000+0  83389-3 0  9992,2 45360  53.0434  81.2115 0001327 103.0046 257.1114 15.57730010331236
STARLINK-1301,45361,53.0423,7.49e-05,15.65374406,371.65659045435586,372.667785272698,1 45361U 20019B   26072.42760757  .00057617  00000+0  56880-3 0  9991,2 45361  53.0423  85.7218 0000749 187.1410 172.9594 15.65374406331196
STARLINK-1262,45366,53.1583,0.0001416,15.29361303,476.7496224179995,478.6912012370294,1 45366U 20019G   26072.59288950  .00003586  00000+0  13653-3 0  9991,2 45366  53.1583 147.0073 0001416  84.4385 275.6777 15.29361303330355
STARLINK-1273,45367,53.0508,0.0003019,15.44917956,429.5632874844496,433.6750182495498,1 45367U 20019H   26072.54634002  .00089678  00000+0  18643-2 0  9999,2 45367  53.0508 136.4600 0003019  16.2329 343.8773 15.44917956330499
STARLINK-1276,45368,53.0819,0.0001355,15.1301989,526.060914074269,527.9322052689395,1 45368U 20019J   26072.66667824  .00812024  00000+0  42388-1 0  9992,2 45368  53.0819 148.6671 0001355  84.4886 337.5179 15.13019890  5859
STARLINK-1277,45369,53.0516,0.0004328,15.49531278,415.15485499633814,421.03767451030853,1 45369U 20019K   26072.17794753  .00078846  00000+0  14000-2 0  9998,2 45369  53.0516 135.8962 0004328  23.9195 336.2013 15.49531278330479
STARLINK-1281,45370,53.1584,0.000212,15.30202907,473.75348085644873,476.6592984536628,1 45370U 20019L   26072.39438588  .00015209  00000+0  52452-3 0  9993,2 45370  53.1584 148.0816 0002120  59.9350 300.1861 15.30202907330320
STARLINK-1300,45374,53.1589,0.0001319,15.29364787,476.80571352235256,478.61428596088354,1 45374U 20019Q   26072.60884444  .00001119  00000+0  51084-4 0  9993,2 45374  53.1589 147.0554 0001319  78.6258 281.4890 15.29364787330350
STARLINK-1302,45375,53.0538,0.000299,15.54368263,401.96177693285335,406.01748865926584,1 45375U 20019R   26072.56454835  .00125837  00000+0  18640-2 0  9999,2 45375  53.0538 133.0561 0002990 327.6685  32.4141 15.54368263330549
STARLINK-1304,45376,53.0499,0.0002933,15.48977339,417.7226520435652,421.71027288464757,1 45376U 20019S   26072.32391694  .00087451  00000+0  15809-2 0  9990,2 45376  53.0499 132.0955 0002933 352.7144   7.3820 15.48977339330535
STARLINK-1305,45377,53.0453,0.0003182,15.53829914,403.3974880613223,407.7146303241925,1 45377U 20019T   26072.37723966  .00103704  00000+0  15722-2 0  9991,2 45377  53.0453 114.4696 0003182  94.8353 265.3020 15.53829914330792
STARLINK-1319,45379,53.0445,0.00026,15.65685614,369.5128179391522,373.0225083639907,1 45379U 20019V   26072.56513001  .00060257  00000+0  58703-3 0  9993,2 45379  53.0445 110.6781 0002600  63.9096 296.2186 15.65685614330867
STARLINK-1266,45383,53.05,0.0004784,15.46113071,424.85338723424957,431.3656038811996,1 45383U 20019Z   26072.53811202  .00091348  00000+0  18220-2 0  9993,2 45383  53.0500 114.6142 0004784  28.1048 332.0215 15.46113071330790
STARLINK-1267,45384,53.0511,0.0002524,15.50458957,413.67040331002954,417.09977326019543,1 45384U 20019AA  26072.29486689  .00091370  00000+0  15667-2 0  9991,2 45384  53.0511 109.7018 0002524 294.3689  65.7056 15.50458957330847
STARLINK-1272,45386,53.0437,0.0002364,15.57260184,393.98919195296276,397.1918103154985,1 45386U 20019AC  26072.32709119  .00063282  00000+0  85251-3 0  9991,2 45386  53.0437  92.1400 0002364 125.0681 235.0552 15.57260184331091
STARLINK-1274,45387,53.0282,0.0002743,15.47698359,421.5953215393074,425.3266782020364,1 45387U 20019AD  26072.27451120  .00085714  00000+0  16207-2 0  9990,2 45387  53.0282  85.7928 0002743 246.0798 113.9921 15.47698359331178
STARLINK-1280,45388,53.0425,0.0001498,15.65960852,369.46583383202415,371.48771851936544,1 45388U 20019AE  26072.35290431  .00056880  00000+0  54864-3 0  9990,2 45388  53.0425 104.4870 0001498  79.9017 280.2167 15.65960852330917
STARLINK-1283,45389,53.0445,0.0002749,15.5738009,393.38081211945064,397.1048163413143,1 45389U 20019AF  26072.31498998  .00155119  00000+0  20470-2 0  9995,2 45389  53.0445  92.4128 0002749 249.8697 110.2018 15.57380090331092
STARLINK-1284,45390,53.0482,0.0004321,15.52507855,406.4737787285094,412.33957397361246,1 45390U 20019AG  26072.28410736  .00093461  00000+0  14887-2 0  9993,2 45390  53.0482 113.6846 0004321  30.4167 329.7092 15.52507855330781
STARLINK-1297,45395,53.0475,0.0005332,15.54973673,398.61386855321416,405.8444510260133,1 45395U 20019AM  26072.61103590  .00113929  00000+0  16532-2 0  9993,2 45395  53.0475 111.7549 0005332  32.9352 327.1990 15.54973673330026
STARLINK-1307,45397,53.055,0.0002454,15.50220237,414.4151965321971,417.7497994618134,1 45397U 20019AP  26072.29330257  .00023320  00000+0  41264-3 0  9997,2 45397  53.0550 113.4511 0002454  47.6329 312.4886 15.50220237330612
STARLINK-1255,45399,53.0419,0.0001761,15.52560572,408.05776929987223,410.4482880679752,1 45399U 20019AR  26072.29472361  .00098125  00000+0  15591-2 0  9990,2 45399  53.0419  85.3824 0001761   0.3211 359.7799 15.52560572330997
STARLINK-1260,45404,53.1609,0.0001584,15.30190874,474.1567428617818,476.3278934297696,1 45404U 20019AW  26072.29004260  .00000289  00000+0  21899-4 0  9990,2 45404  53.1609 112.5192 0001584  92.4686 267.6496 15.30190874330528
